OBJECT_NAME,OBJECT_ID,EPOCH,MEAN_MOTION,ECCENTRICITY,INCLINATION,RA_OF_ASC_NODE,ARG_OF_PERICENTER,MEAN_ANOMALY,EPHEMERIS_TYPE,CLASSIFICATION_TYPE,NORAD_CAT_ID,ELEMENT_SET_NO,REV_AT_EPOCH,BSTAR,MEAN_MOTION_DOT,MEAN_MOTION_DDOT
CUBEBUG-2 (LO-74),2013-066AA,2026-06-11T18:30:32.869728,14.93717789,.0058871,97.8899,111.7263,46.5267,314.0826,0,U,39440,999,67618,.33291E-3,.3584E-4,0
FUNCUBE-1 (AO-73),2013-066AE,2026-06-11T13:18:21.085344,15.09420112,.0035145,97.8262,133.8824,220.5848,139.2760,0,U,39444,999,67881,.34659E-3,.5554E-4,0
UWE-3,2013-066AG,2026-06-11T09:36:40.666752,14.96977019,.0048487,97.8684,118.4353,340.4805,19.4558,0,U,39446,999,67671,.30929E-3,.3579E-4,0
UNISAT-6,2014-033C,2026-06-11T10:02:21.892416,14.88214275,.0046407,97.7868,315.2326,87.7879,272.8650,0,U,40012,999,64530,.25525E-3,.2346E-4,0
DUCHIFAT-1,2014-033M,2026-06-11T15:32:22.710912,15.63483889,.0003968,98.0478,221.0346,124.0330,236.1304,0,U,40021,999,65488,.10582E-2,.9868E-3,0
QB50P1,2014-033R,2026-06-11T13:08:58.559136,15.18175616,.0007302,98.0966,173.2986,237.3952,122.6576,0,U,40025,999,65217,.35252E-3,.7133E-4,0
LILACSAT-2,2015-049K,2026-06-11T20:29:56.198688,15.51269609,.0005266,97.4658,199.4931,270.7018,89.3630,0,U,40908,999,59492,.28065E-3,.1637E-3,0
FOX-1A (AO-85),2015-058D,2026-06-11T17:14:16.526112,14.90943463,.0130128,64.7758,295.9784,58.7261,302.6519,0,U,40967,999,11275,.20997E-3,.2264E-4,0
CAS-2T & KS-1Q,2016-066G,2026-06-11T16:47:33.552960,14.44676189,.0342615,98.3821,238.4986,146.0770,216.2856,0,U,41847,999,50400,.22073E-3,.1523E-4,0
RADFXSAT (FOX-1B),2017-073E,2026-06-11T14:02:53.808000,15.12626564,.015045,97.4718,29.9151,348.6412,11.1435,0,U,43017,999,46454,.38005E-3,.8698E-4,0
DIWATA-2B,2018-084H,2026-06-11T20:02:07.609920,15.00428066,.0012215,98.1180,358.8112,187.4845,172.6197,0,U,43678,999,41541,.21701E-3,.2667E-4,0
ES'HAIL 2,2018-090A,2026-06-11T15:04:43.773888,1.00269967,.0001431,0.0167,320.3790,157.1033,34.4948,0,U,43700,999,2762,0,.161E-5,0
FOX-1CLIFF (AO-95),2018-099N,2026-06-11T02:42:51.950592,15.26583130,.00086139,97.4393,222.3819,20.0469,340.1107,0,U,43770,999,41229,.4121126E-3,.10727E-3,0
ITASAT,2018-099AE,2026-06-11T16:27:42.248160,15.18988570,.0012715,97.4034,214.3073,19.6048,340.5673,0,U,43786,999,41207,.3186E-3,.6612E-4,0
JY1SAT (JO-97),2018-099AX,2026-06-11T10:03:24.374304,15.33467542,.0004121,97.4135,225.2337,290.5933,69.4867,0,U,43803,999,41274,.42176E-3,.13576E-3,0
UWE-4,2018-111E,2026-06-11T18:40:29.161056,15.45791225,.000652,97.5852,90.9210,5.5235,354.6084,0,U,43880,999,40994,.68244E-3,.33079E-3,0
TIANYAN 01,2019-093C,2026-06-11T20:40:47.971776,14.86508603,.0014977,97.7532,235.2236,102.4587,257.8305,0,U,44881,999,35062,.19364E-4,.118E-5,0
RS-44 & BREEZE-KM R/B,2019-096E,2026-06-11T14:39:21.722112,12.79748751,.0217927,82.5217,343.4113,157.1662,203.9312,0,U,44909,999,30163,.60927E-4,.28E-6,0
SALSAT,2020-068K,2026-06-11T14:03:12.574080,15.29719030,.0008526,97.8849,165.3093,331.4069,28.6701,0,U,46495,999,31450,.24314E-3,.6923E-4,0
XW-3 (CAS-9),2021-131B,2026-06-11T20:21:21.330720,14.41352794,.0005293,98.4973,255.2667,108.7025,251.4738,0,U,50466,999,23434,.16045E-3,.475E-5,0
GREENCUBE (IO-117),2022-080E,2026-06-01T11:09:37.753056,6.42583280,.00088692,70.1435,303.7143,293.3663,66.6064,0,U,53109,999,9105,0,-.3E-7,0
UMKA 1 (RS40S),2023-091G,2026-06-11T16:45:53.138016,15.20754474,.0014017,97.5058,221.4167,134.8199,225.4178,0,U,57172,999,16317,.2709E-3,.5909E-4,0
CUBESX-HSE 3 (RS42S),2023-091N,2026-06-11T19:33:31.636800,15.31077206,.0012136,97.5100,228.3344,111.1645,249.0893,0,U,57178,999,16360,.40659E-3,.12161E-3,0
MONITOR-3 (RS58S),2023-091Q,2026-06-11T16:43:09.289920,15.27730668,.0013114,97.5092,226.1025,117.6783,242.5789,0,U,57180,999,16345,.35845E-3,.9662E-4,0
MONITOR-4 (RS57S),2023-091S,2026-06-11T19:22:03.988704,15.27822164,.0013096,97.5085,226.1846,117.6601,242.5969,0,U,57182,999,16347,.335E-3,.905E-4,0
MONITOR-2 (RS39S),2023-091U,2026-06-11T20:16:20.542080,15.18860112,.0012565,97.5079,221.1618,127.3940,232.8440,0,U,57184,999,16314,.23191E-3,.4773E-4,0
SVYATOBOR 1 (RS60S),2023-091X,2026-06-11T19:34:18.164064,15.26522202,.0010913,97.5097,226.6027,110.4724,249.7687,0,U,57187,999,16349,.30971E-3,.8029E-4,0
VIZARD-METEO (RS38S),2023-091Z,2026-06-11T19:19:49.895040,15.35853733,.0008561,97.5099,232.1829,93.8965,266.3257,0,U,57189,999,16386,.45823E-3,.15937E-3,0
POLYTECH-UNIVERSE 3 (RS46S),2023-091AB,2026-06-11T19:21:40.367808,15.19061038,.0016546,97.5055,220.6288,143.9659,216.2695,0,U,57191,999,16313,.20891E-3,.4325E-4,0
UTMN 2 (RS27S),2023-091AP,2026-06-11T20:03:05.262048,15.31919142,.0009469,97.5095,229.9825,99.6411,260.5900,0,U,57203,999,16372,.37708E-3,.11562E-3,0
