CUBEBUG-2 (LO-74)       
1 39440U 13066AA  26162.77121377  .00003584  00000+0  33291-3 0  9998
2 39440  97.8899 111.7263 0058871  46.5267 314.0826 14.93717789676180
FUNCUBE-1 (AO-73)       
1 39444U 13066AE  26162.55441071  .00005554  00000+0  34659-3 0  9992
2 39444  97.8262 133.8824 0035145 220.5848 139.2760 15.09420112678819
UWE-3                   
1 39446U 13066AG  26162.40047068  .00003579  00000+0  30929-3 0  9997
2 39446  97.8684 118.4353 0048487 340.4805  19.4558 14.96977019676712
UNISAT-6                
1 40012U 14033C   26162.41830894  .00002346  00000+0  25525-3 0  9998
2 40012  97.7868 315.2326 0046407  87.7879 272.8650 14.88214275645303
DUCHIFAT-1              
1 40021U 14033M   26162.64748508  .00098680  00000+0  10582-2 0  9995
2 40021  98.0478 221.0346 0003968 124.0330 236.1304 15.63483889654887
QB50P1                  
1 40025U 14033R   26162.54789999  .00007133  00000+0  35252-3 0  9992
2 40025  98.0966 173.2986 0007302 237.3952 122.6576 15.18175616652171
LILACSAT-2              
1 40908U 15049K   26162.85412267  .00016370  00000+0  28065-3 0  9992
2 40908  97.4658 199.4931 0005266 270.7018  89.3630 15.51269609594924
FOX-1A (AO-85)          
1 40967U 15058D   26162.71824683  .00002264  00000+0  20997-3 0  9994
2 40967  64.7758 295.9784 0130128  58.7261 302.6519 14.90943463112758
CAS-2T & KS-1Q          
1 41847U 16066G   26162.69969390  .00001523  00000+0  22073-3 0  9998
2 41847  98.3821 238.4986 0342615 146.0770 216.2856 14.44676189504002
RADFXSAT (FOX-1B)       
1 43017U 17073E   26162.58534500  .00008698  00000+0  38005-3 0  9999
2 43017  97.4718  29.9151 0150450 348.6412  11.1435 15.12626564464549
DIWATA-2B               
1 43678U 18084H   26162.83481030  .00002667  00000+0  21701-3 0  9997
2 43678  98.1180 358.8112 0012215 187.4845 172.6197 15.00428066415413
ES'HAIL 2               
1 43700U 18090A   26162.62828442  .00000161  00000+0  00000+0 0  9991
2 43700   0.0167 320.3790 0001431 157.1033  34.4948  1.00269967 27622
FOX-1CLIFF (AO-95)      
1 43770U 18099N   26162.11310128  .00010727  00000+0  41211-3 0  9990
2 43770  97.4393 222.3819 0008613  20.0469 340.1107 15.26583130412292
ITASAT                  
1 43786U 18099AE  26162.68590565  .00006612  00000+0  31860-3 0  9991
2 43786  97.4034 214.3073 0012715  19.6048 340.5673 15.18988570412075
JY1SAT (JO-97)          
1 43803U 18099AX  26162.41903211  .00013576  00000+0  42176-3 0  9997
2 43803  97.4135 225.2337 0004121 290.5933  69.4867 15.33467542412740
UWE-4                   
1 43880U 18111E   26162.77811529  .00033079  00000+0  68244-3 0  9990
2 43880  97.5852  90.9210 0006520   5.5235 354.6084 15.45791225409942
TIANYAN 01              
1 44881U 19093C   26162.86166634  .00000118  00000+0  19364-4 0  9990
2 44881  97.7532 235.2236 0014977 102.4587 257.8305 14.86508603350625
RS-44 & BREEZE-KM R/B   
1 44909U 19096E   26162.61066808  .00000028  00000+0  60927-4 0  9990
2 44909  82.5217 343.4113 0217927 157.1662 203.9312 12.79748751301632
SALSAT                  
1 46495U 20068K   26162.58556220  .00006923  00000+0  24314-3 0  9990
2 46495  97.8849 165.3093 0008526 331.4069  28.6701 15.29719030314503
XW-3 (CAS-9)            
1 50466U 21131B   26162.84816355  .00000475  00000+0  16045-3 0  9990
2 50466  98.4973 255.2667 0005293 108.7025 251.4738 14.41352794234344
GREENCUBE (IO-117)      
1 53109U 22080E   26152.46502029 -.00000003  00000+0  00000+0 0  9996
2 53109  70.1435 303.7143 0008869 293.3663  66.6064  6.42583280 91055
UMKA 1 (RS40S)          
1 57172U 23091G   26162.69853169  .00005909  00000+0  27090-3 0  9994
2 57172  97.5058 221.4167 0014017 134.8199 225.4178 15.20754474163175
CUBESX-HSE 3 (RS42S)    
1 57178U 23091N   26162.81494950  .00012161  00000+0  40659-3 0  9997
2 57178  97.5100 228.3344 0012136 111.1645 249.0893 15.31077206163603
MONITOR-3 (RS58S)       
1 57180U 23091Q   26162.69663530  .00009662  00000+0  35845-3 0  9991
2 57180  97.5092 226.1025 0013114 117.6783 242.5789 15.27730668163457
MONITOR-4 (RS57S)       
1 57182U 23091S   26162.80699061  .00009050  00000+0  33500-3 0  9991
2 57182  97.5085 226.1846 0013096 117.6601 242.5969 15.27822164163475
MONITOR-2 (RS39S)       
1 57184U 23091U   26162.84468220  .00004773  00000+0  23191-3 0  9990
2 57184  97.5079 221.1618 0012565 127.3940 232.8440 15.18860112163141
SVYATOBOR 1 (RS60S)     
1 57187U 23091X   26162.81548801  .00008029  00000+0  30971-3 0  9996
2 57187  97.5097 226.6027 0010913 110.4724 249.7687 15.26522202163498
VIZARD-METEO (RS38S)    
1 57189U 23091Z   26162.80543860  .00015937  00000+0  45823-3 0  9995
2 57189  97.5099 232.1829 0008561  93.8965 266.3257 15.35853733163866
POLYTECH-UNIVERSE 3 (R*)
1 57191U 23091AB  26162.80671722  .00004325  00000+0  20891-3 0  9994
2 57191  97.5055 220.6288 0016546 143.9659 216.2695 15.19061038163132
UTMN 2 (RS27S)          
1 57203U 23091AP  26162.83547757  .00011562  00000+0  37708-3 0  9997
2 57203  97.5095 229.9825 0009469  99.6411 260.5900 15.31919142163726
